QIANFAN-17              
1 60395U 24140S   25250.89405731  .00000108  00000+0  14793-3 0  9990
2 60395  88.9816 309.3506 0017101 120.1934 240.0913 13.50968547 55198
QIANFAN-18              
1 60396U 24140T   25250.87355004  .00000101  00000+0  13747-3 0  9997
2 60396  88.9808 308.8937 0016559 105.0564 255.2421 13.50970364 54583
QIANFAN-19              
1 61552U 24185A   25250.92385690  .00000532  00000+0  27225-3 0  9995
2 61552  88.9758  88.9329 0004967 247.2507 112.8155 14.14146925 56122
QIANFAN-20              
1 61553U 24185B   25250.94107071  .00000427  00000+0  24021-3 0  9997
2 61553  88.9757  89.1581 0003870 302.9579  57.1232 14.08697780 56002
QIANFAN-21              
1 61554U 24185C   25250.94293235  .00000675  00000+0  29696-3 0  9994
2 61554  88.9673  88.2119 0009399 325.3927  34.6651 14.22407003 56351
QIANFAN-22              
1 61555U 24185D   25250.93461150  .00000234  00000+0  19091-3 0  9996
2 61555  88.9743  89.7548 0004848 297.1108  62.9568 13.86251323 55668
QIANFAN-23              
1 61556U 24185E   25250.89266668  .00000661  00000+0  32767-3 0  9998
2 61556  88.9751  88.7906 0005705 265.2264  94.8272 14.16124593 56183
QIANFAN-24              
1 61557U 24185F   25250.95632329  .00000797  00000+0  34387-3 0  9997
2 61557  88.9732  88.3449 0007528 247.0829 112.9569 14.23609908 56391
